O3B MPOWER F1           
1 54755U 22174A   23305.53538891 -.00000027  00000+0  00000+0 0  9995
2 54755   0.0522  19.1585 0005360 216.7119 246.5209  5.00118428 17406
